STARLINK-1911           
1 46749U 20074L   25255.68190445  .00000972  00000+0  84093-4 0  9994
2 46749  53.0561  40.7255 0001245  92.9097 267.2034 15.06408912269842
STARLINK-1922           
1 46753U 20074Q   25256.12054194 -.00000508  00000+0 -15194-4 0  9992
2 46753  53.0570  38.7587 0001391  84.7866 275.3282 15.06402108269911
STARLINK-1928           
1 46758U 20074V   25256.11454173 -.00000235  00000+0  31254-5 0  9999
2 46758  53.0552  43.7850 0001193  83.6376 276.4749 15.06399069269842
STARLINK-1903           
1 46764U 20074AB  25256.22053158  .00080458  00000+0  73661-3 0  9996
2 46764  53.0237 335.2859 0005499  15.7930 344.3255 15.67099910270817
STARLINK-1832           
1 46780U 20074AT  25256.08828547  .00000359  00000+0  42966-4 0  9997
2 46780  53.0556  28.9015 0001130  89.0433 271.0686 15.06399818270041
STARLINK-1835           
1 46782U 20074AV  25256.07722774  .00001634  00000+0  12858-3 0  9996
2 46782  53.0559  28.9501 0001231  87.1567 272.9562 15.06389281270041
STARLINK-1882           
1 46784U 20074AX  25255.65337247  .00002047  00000+0  15626-3 0  9993
2 46784  53.0559  31.0826 0001272  95.7756 264.3378 15.06405600269972
STARLINK-1893           
1 46786U 20074AZ  25255.59621905  .00004164  00000+0  29815-3 0  9992
2 46786  53.0563  11.1095 0001288  91.7627 268.3510 15.06412201270256
STARLINK-1931           
1 46790U 20074BD  25256.09842496 -.00000005  00000+0  18523-4 0  9999
2 46790  53.0554  38.8550 0001025  81.2376 278.8729 15.06405906269909
STARLINK-1934           
1 46792U 20074BF  25254.68026751  .00000225  00000+0  33987-4 0  9996
2 46792  53.0563  35.2230 0001207  82.8158 277.2968 15.06402130269830
STARLINK-1942           
1 46794U 20074BH  25256.10948143 -.00000577  00000+0 -19841-4 0  9990
2 46794  53.0570  38.8051 0001364 103.2461 256.8681 15.06402888269913
STARLINK-1944           
1 46796U 20074BK  25256.08460644  .00001053  00000+0  89548-4 0  9993
2 46796  53.0570  28.9202 0001004  77.6693 282.4409 15.06395682270047
STARLINK-1777           
1 47122U 20088A   25255.73904662  .00000459  00000+0  49732-4 0  9996
2 47122  53.0562  20.4714 0001226  80.1368 279.9760 15.06399473265015
STARLINK-1812           
1 47126U 20088E   25255.76484173 -.00000007  00000+0  18448-4 0  9993
2 47126  53.0565  20.3503 0001050 104.7248 255.3858 15.06399774265023
STARLINK-1843           
1 47133U 20088M   25256.27442991  .00000697  00000+0  65657-4 0  9998
2 47133  53.0533   8.0657 0001539  94.5884 265.5281 15.06397607265232
STARLINK-1845           
1 47135U 20088P   25255.73628190  .00006678  00000+0  46655-3 0  9998
2 47135  53.0561  10.4837 0001282  83.5061 276.6074 15.06417493265152
