[{"OBJECT_NAME":"STARLINK-1911","OBJECT_ID":"2020-074L","EPOCH":"2025-09-12T16:21:56.544480","MEAN_MOTION":15.06408912,"ECCENTRICITY":0.00012457,"INCLINATION":53.0561,"RA_OF_ASC_NODE":40.7255,"ARG_OF_PERICENTER":92.9097,"MEAN_ANOMALY":267.2034,"EPHEMERIS_TYPE":0,"CLASSIFICATION_TYPE":"U","NORAD_CAT_ID":46749,"ELEMENT_SET_NO":999,"REV_AT_EPOCH":26984,"BSTAR":8.4093246e-5,"MEAN_MOTION_DOT":9.72e-6,"MEAN_MOTION_DDOT":0},{"OBJECT_NAME":"STARLINK-1922","OBJECT_ID":"2020-074Q","EPOCH":"2025-09-13T02:53:34.823616","MEAN_MOTION":15.06402108,"ECCENTRICITY":0.00013919,"INCLINATION":53.057,"RA_OF_ASC_NODE":38.7587,"ARG_OF_PERICENTER":84.7866,"MEAN_ANOMALY":275.3282,"EPHEMERIS_TYPE":0,"CLASSIFICATION_TYPE":"U","NORAD_CAT_ID":46753,"ELEMENT_SET_NO":999,"REV_AT_EPOCH":26991,"BSTAR":-1.5194336e-5,"MEAN_MOTION_DOT":-5.08e-6,"MEAN_MOTION_DDOT":0},{"OBJECT_NAME":"STARLINK-1928","OBJECT_ID":"2020-074V","EPOCH":"2025-09-13T02:44:56.405472","MEAN_MOTION":15.06399069,"ECCENTRICITY":0.00011933,"INCLINATION":53.0552,"RA_OF_ASC_NODE":43.785,"ARG_OF_PERICENTER":83.6376,"MEAN_ANOMALY":276.4749,"EPHEMERIS_TYPE":0,"CLASSIFICATION_TYPE":"U","NORAD_CAT_ID":46758,"ELEMENT_SET_NO":999,"REV_AT_EPOCH":26984,"BSTAR":3.125378e-6,"MEAN_MOTION_DOT":-2.35e-6,"MEAN_MOTION_DDOT":0},{"OBJECT_NAME":"STARLINK-1903","OBJECT_ID":"2020-074AB","EPOCH":"2025-09-13T05:17:33.928512","MEAN_MOTION":15.6709991,"ECCENTRICITY":0.00054998,"INCLINATION":53.0237,"RA_OF_ASC_NODE":335.2859,"ARG_OF_PERICENTER":15.793,"MEAN_ANOMALY":344.3255,"EPHEMERIS_TYPE":0,"CLASSIFICATION_TYPE":"U","NORAD_CAT_ID":46764,"ELEMENT_SET_NO":999,"REV_AT_EPOCH":27081,"BSTAR":0.00073660541,"MEAN_MOTION_DOT":0.00080458,"MEAN_MOTION_DDOT":0},{"OBJECT_NAME":"STARLINK-1832","OBJECT_ID":"2020-074AT","EPOCH":"2025-09-13T02:07:07.864608","MEAN_MOTION":15.06399818,"ECCENTRICITY":0.00011304,"INCLINATION":53.0556,"RA_OF_ASC_NODE":28.9015,"ARG_OF_PERICENTER":89.0433,"MEAN_ANOMALY":271.0686,"EPHEMERIS_TYPE":0,"CLASSIFICATION_TYPE":"U","NORAD_CAT_ID":46780,"ELEMENT_SET_NO":999,"REV_AT_EPOCH":27004,"BSTAR":4.2966258e-5,"MEAN_MOTION_DOT":3.59e-6,"MEAN_MOTION_DDOT":0},{"OBJECT_NAME":"STARLINK-1835","OBJECT_ID":"2020-074AV","EPOCH":"2025-09-13T01:51:12.476736","MEAN_MOTION":15.06389281,"ECCENTRICITY":0.00012311,"INCLINATION":53.0559,"RA_OF_ASC_NODE":28.9501,"ARG_OF_PERICENTER":87.1567,"MEAN_ANOMALY":272.9562,"EPHEMERIS_TYPE":0,"CLASSIFICATION_TYPE":"U","NORAD_CAT_ID":46782,"ELEMENT_SET_NO":999,"REV_AT_EPOCH":27004,"BSTAR":0.0001285776,"MEAN_MOTION_DOT":1.634e-5,"MEAN_MOTION_DDOT":0},{"OBJECT_NAME":"STARLINK-1882","OBJECT_ID":"2020-074AX","EPOCH":"2025-09-12T15:40:51.381408","MEAN_MOTION":15.064056,"ECCENTRICITY":0.00012725,"INCLINATION":53.0559,"RA_OF_ASC_NODE":31.0826,"ARG_OF_PERICENTER":95.7756,"MEAN_ANOMALY":264.3378,"EPHEMERIS_TYPE":0,"CLASSIFICATION_TYPE":"U","NORAD_CAT_ID":46784,"ELEMENT_SET_NO":999,"REV_AT_EPOCH":26997,"BSTAR":0.00015625643,"MEAN_MOTION_DOT":2.047e-5,"MEAN_MOTION_DDOT":0},{"OBJECT_NAME":"STARLINK-1893","OBJECT_ID":"2020-074AZ","EPOCH":"2025-09-12T14:18:33.325920","MEAN_MOTION":15.06412201,"ECCENTRICITY":0.00012886,"INCLINATION":53.0563,"RA_OF_ASC_NODE":11.1095,"ARG_OF_PERICENTER":91.7627,"MEAN_ANOMALY":268.351,"EPHEMERIS_TYPE":0,"CLASSIFICATION_TYPE":"U","NORAD_CAT_ID":46786,"ELEMENT_SET_NO":999,"REV_AT_EPOCH":27025,"BSTAR":0.00029815435,"MEAN_MOTION_DOT":4.164e-5,"MEAN_MOTION_DDOT":0},{"OBJECT_NAME":"STARLINK-1931","OBJECT_ID":"2020-074BD","EPOCH":"2025-09-13T02:21:43.916544","MEAN_MOTION":15.06405906,"ECCENTRICITY":0.00010259,"INCLINATION":53.0554,"RA_OF_ASC_NODE":38.855,"ARG_OF_PERICENTER":81.2376,"MEAN_ANOMALY":278.8729,"EPHEMERIS_TYPE":0,"CLASSIFICATION_TYPE":"U","NORAD_CAT_ID":46790,"ELEMENT_SET_NO":999,"REV_AT_EPOCH":26990,"BSTAR":1.8523015e-5,"MEAN_MOTION_DOT":-5.0e-8,"MEAN_MOTION_DDOT":0},{"OBJECT_NAME":"STARLINK-1934","OBJECT_ID":"2020-074BF","EPOCH":"2025-09-11T16:19:35.112864","MEAN_MOTION":15.0640213,"ECCENTRICITY":0.00012072,"INCLINATION":53.0563,"RA_OF_ASC_NODE":35.223,"ARG_OF_PERICENTER":82.8158,"MEAN_ANOMALY":277.2968,"EPHEMERIS_TYPE":0,"CLASSIFICATION_TYPE":"U","NORAD_CAT_ID":46792,"ELEMENT_SET_NO":999,"REV_AT_EPOCH":26983,"BSTAR":3.3987173e-5,"MEAN_MOTION_DOT":2.25e-6,"MEAN_MOTION_DDOT":0},{"OBJECT_NAME":"STARLINK-1942","OBJECT_ID":"2020-074BH","EPOCH":"2025-09-13T02:37:39.195552","MEAN_MOTION":15.06402888,"ECCENTRICITY":0.00013646,"INCLINATION":53.057,"RA_OF_ASC_NODE":38.8051,"ARG_OF_PERICENTER":103.2461,"MEAN_ANOMALY":256.8681,"EPHEMERIS_TYPE":0,"CLASSIFICATION_TYPE":"U","NORAD_CAT_ID":46794,"ELEMENT_SET_NO":999,"REV_AT_EPOCH":26991,"BSTAR":-1.9840773e-5,"MEAN_MOTION_DOT":-5.77e-6,"MEAN_MOTION_DDOT":0},{"OBJECT_NAME":"STARLINK-1944","OBJECT_ID":"2020-074BK","EPOCH":"2025-09-13T02:01:49.996416","MEAN_MOTION":15.06395682,"ECCENTRICITY":0.00010048,"INCLINATION":53.057,"RA_OF_ASC_NODE":28.9202,"ARG_OF_PERICENTER":77.6693,"MEAN_ANOMALY":282.4409,"EPHEMERIS_TYPE":0,"CLASSIFICATION_TYPE":"U","NORAD_CAT_ID":46796,"ELEMENT_SET_NO":999,"REV_AT_EPOCH":27004,"BSTAR":8.9548264e-5,"MEAN_MOTION_DOT":1.053e-5,"MEAN_MOTION_DDOT":0},{"OBJECT_NAME":"STARLINK-1777","OBJECT_ID":"2020-088A","EPOCH":"2025-09-12T17:44:13.627968","MEAN_MOTION":15.06399473,"ECCENTRICITY":0.00012269,"INCLINATION":53.0562,"RA_OF_ASC_NODE":20.4714,"ARG_OF_PERICENTER":80.1368,"MEAN_ANOMALY":279.976,"EPHEMERIS_TYPE":0,"CLASSIFICATION_TYPE":"U","NORAD_CAT_ID":47122,"ELEMENT_SET_NO":999,"REV_AT_EPOCH":26501,"BSTAR":4.9731816e-5,"MEAN_MOTION_DOT":4.59e-6,"MEAN_MOTION_DDOT":0},{"OBJECT_NAME":"STARLINK-1812","OBJECT_ID":"2020-088E","EPOCH":"2025-09-12T18:21:22.325472","MEAN_MOTION":15.06399774,"ECCENTRICITY":0.00010502,"INCLINATION":53.0565,"RA_OF_ASC_NODE":20.3503,"ARG_OF_PERICENTER":104.7248,"MEAN_ANOMALY":255.3858,"EPHEMERIS_TYPE":0,"CLASSIFICATION_TYPE":"U","NORAD_CAT_ID":47126,"ELEMENT_SET_NO":999,"REV_AT_EPOCH":26502,"BSTAR":1.8448e-5,"MEAN_MOTION_DOT":-7.0e-8,"MEAN_MOTION_DDOT":0},{"OBJECT_NAME":"STARLINK-1843","OBJECT_ID":"2020-088M","EPOCH":"2025-09-13T06:35:10.744224","MEAN_MOTION":15.06397607,"ECCENTRICITY":0.00015394,"INCLINATION":53.0533,"RA_OF_ASC_NODE":8.0657,"ARG_OF_PERICENTER":94.5884,"MEAN_ANOMALY":265.5281,"EPHEMERIS_TYPE":0,"CLASSIFICATION_TYPE":"U","NORAD_CAT_ID":47133,"ELEMENT_SET_NO":999,"REV_AT_EPOCH":26523,"BSTAR":6.5656792e-5,"MEAN_MOTION_DOT":6.97e-6,"MEAN_MOTION_DDOT":0},{"OBJECT_NAME":"STARLINK-1845","OBJECT_ID":"2020-088P","EPOCH":"2025-09-12T17:40:14.756160","MEAN_MOTION":15.06417493,"ECCENTRICITY":0.00012822,"INCLINATION":53.0561,"RA_OF_ASC_NODE":10.4837,"ARG_OF_PERICENTER":83.5061,"MEAN_ANOMALY":276.6074,"EPHEMERIS_TYPE":0,"CLASSIFICATION_TYPE":"U","NORAD_CAT_ID":47135,"ELEMENT_SET_NO":999,"REV_AT_EPOCH":26515,"BSTAR":0.00046654864,"MEAN_MOTION_DOT":6.678e-5,"MEAN_MOTION_DDOT":0}]
